H1 CPF  2 CNE 2024 11 20  0 325 01 swot            NONE
H2  2217301 4381    54754 2024  11 20  0  0  0 2024  11 24  0  0  0  180 1 1   0 0 0  1
H9
10 0 60636  43200.000000  0      -6238734.383      -3329202.531       1696688.080
10 0 60636  43380.000000  0      -5773125.773      -3313106.623       2925065.975
10 0 60636  43560.000000  0      -5113327.384      -3201302.398       4055163.708
10 0 60636  43740.000000  0      -4278988.363      -3002388.521       5049051.445
10 0 60636  43920.000000  0      -3295840.684      -2727284.214       5873421.209
10 0 60636  44100.000000  0      -2194866.173      -2388701.881       6500693.270
10 0 60636  44280.000000  0      -1011285.500      -2000587.172       6909919.381
10 0 60636  44460.000000  0        216597.516      -1577549.702       7087455.289
10 0 60636  44640.000000  0       1448648.093      -1134311.815       7027385.027
10 0 60636  44820.000000  0       2644211.599       -685196.151       6731706.773
10 0 60636  45000.000000  0       3763458.503       -243662.279       6210275.093
10 0 60636  45180.000000  0       4768724.411        178094.272       5480492.174
10 0 60636  45360.000000  0       5625799.767        569469.073       4566751.958
10 0 60636  45540.000000  0       6305129.248        921693.735       3499652.190
10 0 60636  45720.000000  0       6782878.507       1227997.332       2314985.452
10 0 60636  45900.000000  0       7041816.312       1483679.368       1052536.394
10 0 60636  46080.000000  0       7071972.933       1686095.013       -245274.708
10 0 60636  46260.000000  0       6871037.622       1834556.520      -1534853.473
10 0 60636  46440.000000  0       6444472.280       1930156.914      -2772935.021
10 0 60636  46620.000000  0       5805342.230       1975528.988      -3918066.911
10 0 60636  46800.000000  0       4973870.206       1974556.206      -4932014.310
10 0 60636  46980.000000  0       3976738.589       1932052.252      -5781030.208
10 0 60636  47160.000000  0       2846179.853       1853430.223      -6436948.091
10 0 60636  47340.000000  0       1618895.899       1744379.755      -6878072.417
10 0 60636  47520.000000  0        334847.903       1610568.852      -7089846.564
10 0 60636  47700.000000  0       -964042.146       1457385.553      -7065293.888
10 0 60636  47880.000000  0      -2235246.448       1289727.855      -6805226.066
10 0 60636  48060.000000  0      -3437003.070       1111848.736      -6318214.179
10 0 60636  48240.000000  0      -4529669.783        927262.417      -5620332.382
10 0 60636  48420.000000  0      -5477033.999        738710.432      -4734673.299
10 0 60636  48600.000000  0      -6247537.466        548185.750      -3690634.737
10 0 60636  48780.000000  0      -6815373.638        357009.426      -2522988.121
10 0 60636  48960.000000  0      -7161411.813        165951.506      -1270746.188
10 0 60636  49140.000000  0      -7273902.830        -24612.112         24140.015
10 0 60636  49320.000000  0      -7148922.900       -214516.766       1318210.190
10 0 60636  49500.000000  0      -6790533.306       -403611.834       2567987.368
10 0 60636  49680.000000  0      -6210647.813       -591563.590       3731478.426
10 0 60636  49860.000000  0      -5428609.504       -777670.219       4769619.045
10 0 60636  50040.000000  0      -4470498.929       -960702.401       5647601.928
10 0 60636  50220.000000  0      -3368213.945      -1138780.123       6336038.969
10 0 60636  50400.000000  0      -2158363.178      -1309294.842       6811927.676
10 0 60636  50580.000000  0       -881013.880      -1468884.403       7059394.081
10 0 60636  50760.000000  0        421657.728      -1613465.859       7070193.716
10 0 60636  50940.000000  0       1706765.262      -1738329.968       6843966.053
10 0 60636  51120.000000  0       2932123.174      -1838295.113       6388246.831
10 0 60636  51300.000000  0       4057637.892      -1907916.646       5718235.614
10 0 60636  51480.000000  0       5046639.375      -1941744.020       4856315.615
10 0 60636  51660.000000  0       5867108.343      -1934614.240       3831333.620
10 0 60636  51840.000000  0       6492757.832      -1881968.369       2677653.522
10 0 60636  52020.000000  0       6903922.626      -1780173.935       1434006.921
10 0 60636  52200.000000  0       7088219.904      -1626833.212        142179.041
10 0 60636  52380.000000  0       7040948.077      -1421059.535      -1154426.849
10 0 60636  52560.000000  0       6765200.160      -1163703.683      -2412288.428
10 0 60636  52740.000000  0       6271688.157       -857516.580      -3589261.567
10 0 60636  52920.000000  0       5578291.870       -507238.386      -4646013.455
10 0 60636  53100.000000  0       4709359.828       -119606.739      -5547337.285
10 0 60636  53280.000000  0       3694800.471        296718.677      -6263302.066
10 0 60636  53460.000000  0       2569008.770        731313.633      -6770206.051
10 0 60636  53640.000000  0       1369673.003       1172226.304      -7051311.666
10 0 60636  53820.000000  0        136508.837       1606289.809      -7097353.292
10 0 60636  54000.000000  0      -1090044.855       2019504.592      -6906816.257
10 0 60636  54180.000000  0      -2270135.143       2397482.796      -6485981.057
10 0 60636  54360.000000  0      -3365772.149       2725942.456      -5848732.654
10 0 60636  54540.000000  0      -4342043.804       2991240.847      -5016142.424
10 0 60636  54720.000000  0      -5168241.890       3180929.514      -4015821.886
10 0 60636  54900.000000  0      -5818859.076       3284306.245      -2881052.432
10 0 60636  55080.000000  0      -6274421.341       3292940.431      -1649711.678
10 0 60636  55260.000000  0      -6522120.585       3201144.396       -363019.317
10 0 60636  55440.000000  0      -6556212.915       3006362.498        935858.178
10 0 60636  55620.000000  0      -6378157.313       2709453.020       2203290.631
10 0 60636  55800.000000  0      -5996485.848       2314846.050       3396689.980
10 0 60636  55980.000000  0      -5426415.678       1830565.951       4475977.200
10 0 60636  56160.000000  0      -4689221.988       1268113.993       5404950.172
10 0 60636  56340.000000  0      -3811408.623        642216.414       6152499.109
10 0 60636  56520.000000  0      -2823718.174        -29553.710       6693634.229
10 0 60636  56700.000000  0      -1760022.125       -727268.947       7010296.310
10 0 60636  56880.000000  0       -656136.556      -1429238.469       7091931.236
10 0 60636  57060.000000  0        451394.456      -2112682.444       6935820.547
10 0 60636  57240.000000  0       1526511.040      -2754472.529       6547165.219
10 0 60636  57420.000000  0       2534812.583      -3331918.292       5938923.032
10 0 60636  57600.000000  0       3444666.467      -3823576.788       5131401.802
10 0 60636  57780.000000  0       4228219.832      -4210059.348       4151611.231
10 0 60636  57960.000000  0       4862280.081      -4474805.364       3032382.554
10 0 60636  58140.000000  0       5329030.676      -4604788.232       1811276.853
10 0 60636  58320.000000  0       5616553.666      -4591117.354        529313.953
10 0 60636  58500.000000  0       5719133.500      -4429504.943       -770432.179
10 0 60636  58680.000000  0       5637330.970      -4120572.845      -2044318.214
10 0 60636  58860.000000  0       5377823.868      -3669978.085      -3249636.550
10 0 60636  59040.000000  0       4953024.149      -3088350.298      -4346074.565
10 0 60636  59220.000000  0       4380497.229      -2391046.581      -5297069.630
10 0 60636  59400.000000  0       3682217.397      -1597735.516      -6071011.922
10 0 60636  59580.000000  0       2883700.463       -731828.534      -6642258.015
10 0 60636  59760.000000  0       2013053.007        180220.988      -6991933.802
10 0 60636  59940.000000  0       1099974.339       1109725.343      -7108509.302
10 0 60636  60120.000000  0        174748.969       2026652.679      -6988144.540
10 0 60636  60300.000000  0       -732744.719       2900582.154      -6634804.869
10 0 60636  60480.000000  0      -1593985.435       3701700.788      -6060143.009
10 0 60636  60660.000000  0      -2382694.904       4401815.054      -5283147.891
10 0 60636  60840.000000  0      -3075637.794       4975350.929      -4329565.152
10 0 60636  61020.000000  0      -3653314.660       5400308.214      -3231090.393
10 0 60636  61200.000000  0      -4100522.460       5659126.659      -2024352.037
10 0 60636  61380.000000  0      -4406764.680       5739429.699       -749710.168
10 0 60636  61560.000000  0      -4566492.977       5634606.137        550099.371
10 0 60636  61740.000000  0      -4579166.517       5344190.963       1831426.337
10 0 60636  61920.000000  0      -4449123.948       4874021.985       3051214.412
10 0 60636  62100.000000  0      -4185272.647       4236158.198       4168487.575
10 0 60636  62280.000000  0      -3800618.680       3448568.727       5145751.405
10 0 60636  62460.000000  0      -3311665.721       2534604.767       5950260.698
10 0 60636  62640.000000  0      -2737711.530       1522276.991       6555107.307
10 0 60636  62820.000000  0      -2100077.432        443370.539       6940096.207
10 0 60636  63000.000000  0      -1421305.621       -667570.824       7092390.917
10 0 60636  63180.000000  0       -724355.529      -1774358.846       7006917.685
10 0 60636  63360.000000  0        -31824.163      -2840342.578       6686525.234
10 0 60636  63540.000000  0        634787.871      -3829627.144       6141895.709
10 0 60636  63720.000000  0       1255743.578      -4708292.551       5391206.543
10 0 60636  63900.000000  0       1813653.194      -5445576.174       4459552.774
10 0 60636  64080.000000  0       2293960.555      -6014984.420       3378136.738
10 0 60636  64260.000000  0       2685316.461      -6395285.335       2183235.090
10 0 60636  64440.000000  0       2979823.912      -6571333.520        914976.849
10 0 60636  64620.000000  0       3173149.546      -6534691.049       -384024.399
99